[{"OBJECT_NAME":"STARLINK-11402 [DTC]","OBJECT_ID":"2024-204A","EPOCH":"2025-09-13T00:17:01.965984","MEAN_MOTION":15.69722117,"ECCENTRICITY":0.00012103,"INCLINATION":53.1597,"RA_OF_ASC_NODE":152.5174,"ARG_OF_PERICENTER":115.5556,"MEAN_ANOMALY":244.5587,"EPHEMERIS_TYPE":0,"CLASSIFICATION_TYPE":"U","NORAD_CAT_ID":61874,"ELEMENT_SET_NO":999,"REV_AT_EPOCH":4959,"BSTAR":3.3888702e-5,"MEAN_MOTION_DOT":3.52e-5,"MEAN_MOTION_DDOT":0},{"OBJECT_NAME":"STARLINK-11316 [DTC]","OBJECT_ID":"2024-204B","EPOCH":"2025-09-13T03:27:18.406656","MEAN_MOTION":15.6975343,"ECCENTRICITY":0.00010343,"INCLINATION":53.1586,"RA_OF_ASC_NODE":151.1666,"ARG_OF_PERICENTER":70.4361,"MEAN_ANOMALY":289.6768,"EPHEMERIS_TYPE":0,"CLASSIFICATION_TYPE":"U","NORAD_CAT_ID":61875,"ELEMENT_SET_NO":999,"REV_AT_EPOCH":4903,"BSTAR":-6.7880222e-5,"MEAN_MOTION_DOT":-8.818e-5,"MEAN_MOTION_DDOT":0},{"OBJECT_NAME":"STARLINK-11401 [DTC]","OBJECT_ID":"2024-204C","EPOCH":"2025-09-13T00:09:58.116960","MEAN_MOTION":15.69714977,"ECCENTRICITY":0.00011741,"INCLINATION":53.1598,"RA_OF_ASC_NODE":152.4642,"ARG_OF_PERICENTER":91.4982,"MEAN_ANOMALY":268.617,"EPHEMERIS_TYPE":0,"CLASSIFICATION_TYPE":"U","NORAD_CAT_ID":61876,"ELEMENT_SET_NO":999,"REV_AT_EPOCH":4900,"BSTAR":1.8801869e-5,"MEAN_MOTION_DOT":1.69e-5,"MEAN_MOTION_DDOT":0},{"OBJECT_NAME":"STARLINK-11321 [DTC]","OBJECT_ID":"2024-204D","EPOCH":"2025-09-13T00:02:54.265344","MEAN_MOTION":15.69714154,"ECCENTRICITY":8.097e-5,"INCLINATION":53.16,"RA_OF_ASC_NODE":152.4315,"ARG_OF_PERICENTER":71.8712,"MEAN_ANOMALY":288.2395,"EPHEMERIS_TYPE":0,"CLASSIFICATION_TYPE":"U","NORAD_CAT_ID":61877,"ELEMENT_SET_NO":999,"REV_AT_EPOCH":4899,"BSTAR":1.4078589e-5,"MEAN_MOTION_DOT":1.118e-5,"MEAN_MOTION_DDOT":0},{"OBJECT_NAME":"STARLINK-11314 [DTC]","OBJECT_ID":"2024-204E","EPOCH":"2025-09-12T17:49:07.222080","MEAN_MOTION":15.69705279,"ECCENTRICITY":8.804e-5,"INCLINATION":53.1583,"RA_OF_ASC_NODE":153.6526,"ARG_OF_PERICENTER":84.496,"MEAN_ANOMALY":275.6158,"EPHEMERIS_TYPE":0,"CLASSIFICATION_TYPE":"U","NORAD_CAT_ID":61878,"ELEMENT_SET_NO":999,"REV_AT_EPOCH":4896,"BSTAR":-2.92352e-7,"MEAN_MOTION_DOT":-6.24e-6,"MEAN_MOTION_DDOT":0},{"OBJECT_NAME":"STARLINK-11324 [DTC]","OBJECT_ID":"2024-204F","EPOCH":"2025-09-12T17:42:03.433536","MEAN_MOTION":15.69699057,"ECCENTRICITY":9.132e-5,"INCLINATION":53.1568,"RA_OF_ASC_NODE":153.62,"ARG_OF_PERICENTER":53.6988,"MEAN_ANOMALY":306.4115,"EPHEMERIS_TYPE":0,"CLASSIFICATION_TYPE":"U","NORAD_CAT_ID":61879,"ELEMENT_SET_NO":999,"REV_AT_EPOCH":4896,"BSTAR":4.092154e-6,"MEAN_MOTION_DOT":-9.3e-7,"MEAN_MOTION_DDOT":0},{"OBJECT_NAME":"STARLINK-11328 [DTC]","OBJECT_ID":"2024-204G","EPOCH":"2025-09-12T17:34:59.686464","MEAN_MOTION":15.69694243,"ECCENTRICITY":0.00011536,"INCLINATION":53.1597,"RA_OF_ASC_NODE":153.5871,"ARG_OF_PERICENTER":84.6545,"MEAN_ANOMALY":275.4604,"EPHEMERIS_TYPE":0,"CLASSIFICATION_TYPE":"U","NORAD_CAT_ID":61880,"ELEMENT_SET_NO":999,"REV_AT_EPOCH":4896,"BSTAR":9.597488e-6,"MEAN_MOTION_DOT":5.73e-6,"MEAN_MOTION_DDOT":0},{"OBJECT_NAME":"STARLINK-11329 [DTC]","OBJECT_ID":"2024-204H","EPOCH":"2025-09-12T23:34:39.486144","MEAN_MOTION":15.69698699,"ECCENTRICITY":9.022e-5,"INCLINATION":53.1585,"RA_OF_ASC_NODE":152.3011,"ARG_OF_PERICENTER":78.775,"MEAN_ANOMALY":281.337,"EPHEMERIS_TYPE":0,"CLASSIFICATION_TYPE":"U","NORAD_CAT_ID":61881,"ELEMENT_SET_NO":999,"REV_AT_EPOCH":4900,"BSTAR":1.7939745e-5,"MEAN_MOTION_DOT":1.585e-5,"MEAN_MOTION_DDOT":0},{"OBJECT_NAME":"STARLINK-11398 [DTC]","OBJECT_ID":"2024-204J","EPOCH":"2025-09-12T23:27:36.085536","MEAN_MOTION":15.69695952,"ECCENTRICITY":0.00011366,"INCLINATION":53.1575,"RA_OF_ASC_NODE":152.2653,"ARG_OF_PERICENTER":68.7099,"MEAN_ANOMALY":291.404,"EPHEMERIS_TYPE":0,"CLASSIFICATION_TYPE":"U","NORAD_CAT_ID":61882,"ELEMENT_SET_NO":999,"REV_AT_EPOCH":4900,"BSTAR":6.899321e-6,"MEAN_MOTION_DOT":2.47e-6,"MEAN_MOTION_DDOT":0},{"OBJECT_NAME":"STARLINK-11383 [DTC]","OBJECT_ID":"2024-204K","EPOCH":"2025-09-11T22:46:30.972576","MEAN_MOTION":15.69719179,"ECCENTRICITY":0.00013632,"INCLINATION":53.1597,"RA_OF_ASC_NODE":157.2216,"ARG_OF_PERICENTER":83.2679,"MEAN_ANOMALY":276.8495,"EPHEMERIS_TYPE":0,"CLASSIFICATION_TYPE":"U","NORAD_CAT_ID":61883,"ELEMENT_SET_NO":999,"REV_AT_EPOCH":4884,"BSTAR":9.150393e-6,"MEAN_MOTION_DOT":5.2e-6,"MEAN_MOTION_DDOT":0},{"OBJECT_NAME":"STARLINK-11359 [DTC]","OBJECT_ID":"2024-204L","EPOCH":"2025-09-13T02:23:54.113568","MEAN_MOTION":15.69701889,"ECCENTRICITY":0.00015142,"INCLINATION":53.1592,"RA_OF_ASC_NODE":151.6076,"ARG_OF_PERICENTER":56.8079,"MEAN_ANOMALY":303.3084,"EPHEMERIS_TYPE":0,"CLASSIFICATION_TYPE":"U","NORAD_CAT_ID":61884,"ELEMENT_SET_NO":999,"REV_AT_EPOCH":4902,"BSTAR":1.8785312e-5,"MEAN_MOTION_DOT":1.686e-5,"MEAN_MOTION_DDOT":0},{"OBJECT_NAME":"STARLINK-11301 [DTC]","OBJECT_ID":"2024-204M","EPOCH":"2025-09-13T02:09:46.210752","MEAN_MOTION":15.69703402,"ECCENTRICITY":0.00012987,"INCLINATION":53.1591,"RA_OF_ASC_NODE":151.5414,"ARG_OF_PERICENTER":53.9047,"MEAN_ANOMALY":306.2091,"EPHEMERIS_TYPE":0,"CLASSIFICATION_TYPE":"U","NORAD_CAT_ID":61885,"ELEMENT_SET_NO":999,"REV_AT_EPOCH":4902,"BSTAR":1.3443056e-5,"MEAN_MOTION_DOT":1.04e-5,"MEAN_MOTION_DDOT":0},{"OBJECT_NAME":"STARLINK-11351 [DTC]","OBJECT_ID":"2024-204N","EPOCH":"2025-09-12T10:45:52.658496","MEAN_MOTION":15.69701605,"ECCENTRICITY":0.00010858,"INCLINATION":53.159,"RA_OF_ASC_NODE":154.6451,"ARG_OF_PERICENTER":88.3417,"MEAN_ANOMALY":271.7725,"EPHEMERIS_TYPE":0,"CLASSIFICATION_TYPE":"U","NORAD_CAT_ID":61886,"ELEMENT_SET_NO":999,"REV_AT_EPOCH":4892,"BSTAR":-1.1190051e-5,"MEAN_MOTION_DOT":-1.943e-5,"MEAN_MOTION_DDOT":0},{"OBJECT_NAME":"STARLINK-32410","OBJECT_ID":"2024-204P","EPOCH":"2025-09-13T04:46:34.806144","MEAN_MOTION":15.30192398,"ECCENTRICITY":0.00013371,"INCLINATION":53.1592,"RA_OF_ASC_NODE":231.4579,"ARG_OF_PERICENTER":80.873,"MEAN_ANOMALY":279.2422,"EPHEMERIS_TYPE":0,"CLASSIFICATION_TYPE":"U","NORAD_CAT_ID":61887,"ELEMENT_SET_NO":999,"REV_AT_EPOCH":4792,"BSTAR":5.375861e-5,"MEAN_MOTION_DOT":1.233e-5,"MEAN_MOTION_DDOT":0},{"OBJECT_NAME":"STARLINK-32377","OBJECT_ID":"2024-204Q","EPOCH":"2025-09-13T04:35:56.547744","MEAN_MOTION":15.30191332,"ECCENTRICITY":0.00013273,"INCLINATION":53.1603,"RA_OF_ASC_NODE":231.4079,"ARG_OF_PERICENTER":86.2687,"MEAN_ANOMALY":273.8466,"EPHEMERIS_TYPE":0,"CLASSIFICATION_TYPE":"U","NORAD_CAT_ID":61888,"ELEMENT_SET_NO":999,"REV_AT_EPOCH":4791,"BSTAR":9.806679e-6,"MEAN_MOTION_DOT":-6.9e-7,"MEAN_MOTION_DDOT":0},{"OBJECT_NAME":"STARLINK-32292","OBJECT_ID":"2024-204R","EPOCH":"2025-09-13T05:00:15.346944","MEAN_MOTION":15.30193653,"ECCENTRICITY":0.00015101,"INCLINATION":53.1597,"RA_OF_ASC_NODE":231.5131,"ARG_OF_PERICENTER":86.3688,"MEAN_ANOMALY":273.7485,"EPHEMERIS_TYPE":0,"CLASSIFICATION_TYPE":"U","NORAD_CAT_ID":61889,"ELEMENT_SET_NO":999,"REV_AT_EPOCH":4792,"BSTAR":4.6437483e-5,"MEAN_MOTION_DOT":1.016e-5,"MEAN_MOTION_DDOT":0}]
