STARLINK-11402 [DTC]    
1 61874U 24204A   25256.01182831  .00003520  00000+0  33889-4 0  9996
2 61874  53.1597 152.5174 0001210 115.5556 244.5587 15.69722117 49598
STARLINK-11316 [DTC]    
1 61875U 24204B   25256.14396304 -.00008818  00000+0 -67880-4 0  9998
2 61875  53.1586 151.1666 0001034  70.4361 289.6768 15.69753430 49037
STARLINK-11401 [DTC]    
1 61876U 24204C   25256.00692265  .00001690  00000+0  18802-4 0  9998
2 61876  53.1598 152.4642 0001174  91.4982 268.6170 15.69714977 49000
STARLINK-11321 [DTC]    
1 61877U 24204D   25256.00201696  .00001118  00000+0  14079-4 0  9990
2 61877  53.1600 152.4315 0000809  71.8712 288.2395 15.69714154 48990
STARLINK-11314 [DTC]    
1 61878U 24204E   25255.74244470 -.00000624  00000+0 -29235-6 0  9993
2 61878  53.1583 153.6526 0000880  84.4960 275.6158 15.69705279 48964
STARLINK-11324 [DTC]    
1 61879U 24204F   25255.73753974 -.00000093  00000+0  40922-5 0  9991
2 61879  53.1568 153.6200 0000913  53.6988 306.4115 15.69699057 48964
STARLINK-11328 [DTC]    
1 61880U 24204G   25255.73263526  .00000573  00000+0  95975-5 0  9992
2 61880  53.1597 153.5871 0001153  84.6545 275.4604 15.69694243 48961
STARLINK-11329 [DTC]    
1 61881U 24204H   25255.98240146  .00001585  00000+0  17940-4 0  9992
2 61881  53.1585 152.3011 0000902  78.7750 281.3370 15.69698699 49006
STARLINK-11398 [DTC]    
1 61882U 24204J   25255.97750099  .00000247  00000+0  68993-5 0  9994
2 61882  53.1575 152.2653 0001136  68.7099 291.4040 15.69695952 49007
STARLINK-11383 [DTC]    
1 61883U 24204K   25254.94896959  .00000520  00000+0  91504-5 0  9995
2 61883  53.1597 157.2216 0001363  83.2679 276.8495 15.69719179 48840
STARLINK-11359 [DTC]    
1 61884U 24204L   25256.09993187  .00001686  00000+0  18785-4 0  9998
2 61884  53.1592 151.6076 0001514  56.8079 303.3084 15.69701889 49026
STARLINK-11301 [DTC]    
1 61885U 24204M   25256.09011818  .00001040  00000+0  13443-4 0  9991
2 61885  53.1591 151.5414 0001298  53.9047 306.2091 15.69703402 49026
STARLINK-11351 [DTC]    
1 61886U 24204N   25255.44852614 -.00001943  00000+0 -11190-4 0  9998
2 61886  53.1590 154.6451 0001085  88.3417 271.7725 15.69701605 48929
STARLINK-32410          
1 61887U 24204P   25256.19901396  .00001233  00000+0  53759-4 0  9991
2 61887  53.1592 231.4579 0001337  80.8730 279.2422 15.30192398 47929
STARLINK-32377          
1 61888U 24204Q   25256.19162671 -.00000069  00000+0  98067-5 0  9996
2 61888  53.1603 231.4079 0001327  86.2687 273.8466 15.30191332 47912
STARLINK-32292          
1 61889U 24204R   25256.20851096  .00001016  00000+0  46437-4 0  9990
2 61889  53.1597 231.5131 0001510  86.3688 273.7485 15.30193653 47920
